[{"OBJECT_NAME":"STARLINK-30103","OBJECT_ID":"2023-056E","EPOCH":"2026-03-09T22:00:01.999584","MEAN_MOTION":15.26736868,"ECCENTRICITY":0.00023268,"INCLINATION":42.9993,"RA_OF_ASC_NODE":207.4054,"ARG_OF_PERICENTER":264.6,"MEAN_ANOMALY":232.0817,"EPHEMERIS_TYPE":0,"CLASSIFICATION_TYPE":"U","NORAD_CAT_ID":56290,"ELEMENT_SET_NO":999,"REV_AT_EPOCH":572,"BSTAR":0.0017273975,"MEAN_MOTION_DOT":0.00046364,"MEAN_MOTION_DDOT":0},{"OBJECT_NAME":"TEVEL2-6","OBJECT_ID":"2025-052F","EPOCH":"2026-03-09T15:35:24.554400","MEAN_MOTION":15.30760889,"ECCENTRICITY":0.0004769,"INCLINATION":97.4016,"RA_OF_ASC_NODE":325.0381,"ARG_OF_PERICENTER":95.6604,"MEAN_ANOMALY":264.5181,"EPHEMERIS_TYPE":0,"CLASSIFICATION_TYPE":"U","NORAD_CAT_ID":63215,"ELEMENT_SET_NO":999,"REV_AT_EPOCH":5486,"BSTAR":0.00070909,"MEAN_MOTION_DOT":0.00021046,"MEAN_MOTION_DDOT":0}]
